start=new Date('2023-06-16T00:00:00.000Z').valueOf();
sats=[{"NORAD_CAT_ID":"47675","RCS_SIZE":"LARGE","MEAN_MOTION_DDOT":"0.0000000000000","COUNTRY_CODE":"US","MEAN_ANOMALY":"279.3802","MEAN_ELEMENT_THEORY":"SGP4","LAUNCH_DATE":"2021-02-16","DECAY_DATE":null,"EPOCH":"2023-06-15T08:28:27.190272","FILE":"3933820","REV_AT_EPOCH":"12979","PERIAPSIS":"546.565","ARG_OF_PERICENTER":"80.7294","ELEMENT_SET_NO":"999","REF_FRAME":"TEME","TIME_SYSTEM":"UTC","TLE_LINE1":"1 47675U 21012BH  23166.35309248  .00001514  00000-0  12052-3 0  9991","OBJECT_ID":"2021-012BH","GP_ID":"233986574","PERIOD":"95.592","INCLINATION":"53.0536","MEAN_MOTION_DOT":"0.00001514","CLASSIFICATION_TYPE":"U","ECCENTRICITY":"0.00009460","OBJECT_NAME":"STARLINK-2078","APOAPSIS":"547.876","CENTER_NAME":"EARTH","SITE":"AFETR","EPHEMERIS_TYPE":"0","TLE_LINE2":"2 47675  53.0536 213.3269 0000946  80.7294 279.3802 15.06397705129790","MEAN_MOTION":"15.06397705","RA_OF_ASC_NODE":"213.3269","OBJECT_TYPE":"PAYLOAD","BSTAR":"0.00012052000000","SEMIMAJOR_AXIS":"6925.356"},{"PERIOD":"95.593","MEAN_MOTION_DOT":"-0.00001158","INCLINATION":"53.0536","OBJECT_ID":"2021-012BJ","GP_ID":"233986825","CLASSIFICATION_TYPE":"U","ECCENTRICITY":"0.00013560","OBJECT_NAME":"STARLINK-2083","APOAPSIS":"548.188","CENTER_NAME":"EARTH","SITE":"AFETR","OBJECT_TYPE":"PAYLOAD","BSTAR":"-0.00005887600000","SEMIMAJOR_AXIS":"6925.384","EPHEMERIS_TYPE":"0","TLE_LINE2":"2 47676  53.0536 103.9429 0001356  96.3884 263.7260 15.06388463131291","MEAN_MOTION":"15.06388463","RA_OF_ASC_NODE":"103.9429","COUNTRY_CODE":"US","NORAD_CAT_ID":"47676","RCS_SIZE":"LARGE","MEAN_MOTION_DDOT":"0.0000000000000","LAUNCH_DATE":"2021-02-16","DECAY_DATE":null,"FILE":"3933820","EPOCH":"2023-06-15T05:10:45.136416","MEAN_ELEMENT_THEORY":"SGP4","MEAN_ANOMALY":"263.7260","ARG_OF_PERICENTER":"96.3884","ELEMENT_SET_NO":"999","REV_AT_EPOCH":"13129","PERIAPSIS":"546.310","TIME_SYSTEM":"UTC","TLE_LINE1":"1 47676U 21012BJ  23166.21580019 -.00001158  00000-0 -58876-4 0  9995","REF_FRAME":"TEME"},{"OBJECT_NAME":"STARLINK-2090","ECCENTRICITY":"0.00010170","CLASSIFICATION_TYPE":"U","GP_ID":"233987576","OBJECT_ID":"2021-012BK","INCLINATION":"53.0536","MEAN_MOTION_DOT":"0.00011198","PERIOD":"95.592","MEAN_MOTION":"15.06408864","RA_OF_ASC_NODE":"232.7822","TLE_LINE2":"2 47677  53.0536 232.7822 0001017  90.6700 269.4406 15.06408864129524","EPHEMERIS_TYPE":"0","SEMIMAJOR_AXIS":"6925.321","OBJECT_TYPE":"PAYLOAD","BSTAR":"0.00076926000000","SITE":"AFETR","APOAPSIS":"547.891","CENTER_NAME":"EARTH","MEAN_ELEMENT_THEORY":"SGP4","MEAN_ANOMALY":"269.4406","FILE":"3933820","EPOCH":"2023-06-15T11:19:35.690304","DECAY_DATE":null,"LAUNCH_DATE":"2021-02-16","RCS_SIZE":"LARGE","MEAN_MOTION_DDOT":"0.0000000000000","NORAD_CAT_ID":"47677","COUNTRY_CODE":"US","REF_FRAME":"TEME","TLE_LINE1":"1 47677U 21012BK  23166.47194086  .00011198  00000-0  76926-3 0  9997","TIME_SYSTEM":"UTC","REV_AT_EPOCH":"12952","PERIAPSIS":"546.482","ARG_OF_PERICENTER":"90.6700","ELEMENT_SET_NO":"999"},{"SITE":"AFETR","APOAPSIS":"548.010","CENTER_NAME":"EARTH","MEAN_MOTION":"15.06393059","RA_OF_ASC_NODE":"232.6546","EPHEMERIS_TYPE":"0","TLE_LINE2":"2 47679  53.0530 232.6546 0001119  76.9798 283.1316 15.06393059129543","SEMIMAJOR_AXIS":"6925.370","BSTAR":"-0.00004284900000","OBJECT_TYPE":"PAYLOAD","GP_ID":"233986324","OBJECT_ID":"2021-012BM","INCLINATION":"53.0530","MEAN_MOTION_DOT":"-0.00000919","PERIOD":"95.593","ECCENTRICITY":"0.00011190","OBJECT_NAME":"STARLINK-2095","CLASSIFICATION_TYPE":"U","REV_AT_EPOCH":"12954","PERIAPSIS":"546.460","ARG_OF_PERICENTER":"76.9798","ELEMENT_SET_NO":"999","REF_FRAME":"TEME","TLE_LINE1":"1 47679U 21012BM  23166.50142959 -.00000919  00000-0 -42849-4 0  9994","TIME_SYSTEM":"UTC","MEAN_MOTION_DDOT":"0.0000000000000","RCS_SIZE":"LARGE","NORAD_CAT_ID":"47679","COUNTRY_CODE":"US","MEAN_ANOMALY":"283.1316","MEAN_ELEMENT_THEORY":"SGP4","EPOCH":"2023-06-15T12:02:03.516576","FILE":"3933820","LAUNCH_DATE":"2021-02-16","DECAY_DATE":null},{"CENTER_NAME":"EARTH","APOAPSIS":"548.011","SITE":"AFETR","EPHEMERIS_TYPE":"0","TLE_LINE2":"2 47722  53.0551 356.5195 0001219  69.7507 290.3613 15.06415388127582","RA_OF_ASC_NODE":"356.5195","MEAN_MOTION":"15.06415388","OBJECT_TYPE":"PAYLOAD","BSTAR":"0.00109890000000","SEMIMAJOR_AXIS":"6925.301","OBJECT_ID":"2021-017A","GP_ID":"234020047","PERIOD":"95.591","INCLINATION":"53.0551","MEAN_MOTION_DOT":"0.00016131","CLASSIFICATION_TYPE":"U","ECCENTRICITY":"0.00012190","OBJECT_NAME":"STARLINK-2068","PERIAPSIS":"546.322","REV_AT_EPOCH":"12758","ELEMENT_SET_NO":"999","ARG_OF_PERICENTER":"69.7507","REF_FRAME":"TEME","TIME_SYSTEM":"UTC","TLE_LINE1":"1 47722U 21017A   23166.80972642  .00016131  00000-0  10989-2 0  9990","NORAD_CAT_ID":"47722","MEAN_MOTION_DDOT":"0.0000000000000","RCS_SIZE":"LARGE","COUNTRY_CODE":"US","MEAN_ELEMENT_THEORY":"SGP4","MEAN_ANOMALY":"290.3613","LAUNCH_DATE":"2021-03-04","DECAY_DATE":null,"EPOCH":"2023-06-15T19:26:00.362688","FILE":"3934071"},{"SITE":"AFETR","CENTER_NAME":"EARTH","APOAPSIS":"547.916","MEAN_MOTION":"15.06422228","RA_OF_ASC_NODE":"292.1311","TLE_LINE2":"2 47723  53.0554 292.1311 0001112 108.2477 251.8633 15.06422228128438","EPHEMERIS_TYPE":"0","SEMIMAJOR_AXIS":"6925.280","OBJECT_TYPE":"PAYLOAD","BSTAR":"0.00126260000000","GP_ID":"234018535","OBJECT_ID":"2021-017B","MEAN_MOTION_DOT":"0.00018586","INCLINATION":"53.0554","PERIOD":"95.591","ECCENTRICITY":"0.00011120","OBJECT_NAME":"STARLINK-2107","CLASSIFICATION_TYPE":"U","REV_AT_EPOCH":"12843","PERIAPSIS":"546.375","ARG_OF_PERICENTER":"108.2477","ELEMENT_SET_NO":"999","REF_FRAME":"TEME","TLE_LINE1":"1 47723U 21017B   23166.61848030  .00018586  00000-0  12626-2 0  9999","TIME_SYSTEM":"UTC","RCS_SIZE":"LARGE","MEAN_MOTION_DDOT":"0.0000000000000","NORAD_CAT_ID":"47723","COUNTRY_CODE":"US","MEAN_ELEMENT_THEORY":"SGP4","MEAN_ANOMALY":"251.8633","EPOCH":"2023-06-15T14:50:36.697920","FILE":"3934071","LAUNCH_DATE":"2021-03-04","DECAY_DATE":null},{"APOAPSIS":"547.620","CENTER_NAME":"EARTH","SITE":"AFETR","OBJECT_TYPE":"PAYLOAD","BSTAR":"0.00152980000000","SEMIMAJOR_AXIS":"6925.254","TLE_LINE2":"2 47724  53.0545 291.6698 0000723  74.0740 286.0328 15.06430871128413","EPHEMERIS_TYPE":"0","RA_OF_ASC_NODE":"291.6698","MEAN_MOTION":"15.06430871","PERIOD":"95.590","INCLINATION":"53.0545","MEAN_MOTION_DOT":"0.00022597","OBJECT_ID":"2021-017C","GP_ID":"234018549","CLASSIFICATION_TYPE":"U","OBJECT_NAME":"STARLINK-2116","ECCENTRICITY":"0.00007230","ELEMENT_SET_NO":"999","ARG_OF_PERICENTER":"74.0740","PERIAPSIS":"546.618","REV_AT_EPOCH":"12841","TIME_SYSTEM":"UTC","TLE_LINE1":"1 47724U 21017C   23166.72168283  .00022597  00000-0  15298-2 0  9992","REF_FRAME":"TEME","COUNTRY_CODE":"US","NORAD_CAT_ID":"47724","RCS_SIZE":"LARGE","MEAN_MOTION_DDOT":"0.0000000000000","DECAY_DATE":null,"LAUNCH_DATE":"2021-03-04","FILE":"3934071","EPOCH":"2023-06-15T17:19:13.396512","MEAN_ELEMENT_THEORY":"SGP4","MEAN_ANOMALY":"286.0328"},{"COUNTRY_CODE":"US","RCS_SIZE":"LARGE","MEAN_MOTION_DDOT":"0.0000000000000","NORAD_CAT_ID":"47725","EPOCH":"2023-06-15T19:43:52.508064","FILE":"3934071","LAUNCH_DATE":"2021-03-04","DECAY_DATE":null,"MEAN_ELEMENT_THEORY":"SGP4","MEAN_ANOMALY":"257.4595","ELEMENT_SET_NO":"999","ARG_OF_PERICENTER":"102.6517","PERIAPSIS":"546.373","REV_AT_EPOCH":"12746","TLE_LINE1":"1 47725U 21017D   23166.82213551  .00024184  00000-0  16358-2 0  9995","TIME_SYSTEM":"UTC","REF_FRAME":"TEME","MEAN_MOTION_DOT":"0.00024184","INCLINATION":"53.0542","PERIOD":"95.591","GP_ID":"234018799","OBJECT_ID":"2021-017D","ECCENTRICITY":"0.00011060","OBJECT_NAME":"STARLINK-2125","CLASSIFICATION_TYPE":"U","SITE":"AFETR","CENTER_NAME":"EARTH","APOAPSIS":"547.904","SEMIMAJOR_AXIS":"6925.274","BSTAR":"0.00163580000000","OBJECT_TYPE":"PAYLOAD","RA_OF_ASC_NODE":"1.2233","MEAN_MOTION":"15.06424478","TLE_LINE2":"2 47725  53.0542   1.2233 0001106 102.6517 257.4595 15.06424478127465","EPHEMERIS_TYPE":"0"},{"TIME_SYSTEM":"UTC","TLE_LINE1":"1 47726U 21017E   23166.80738296  .00020753  00000-0  14068-2 0  9996","REF_FRAME":"TEME","ELEMENT_SET_NO":"999","ARG_OF_PERICENTER":"105.9847","PERIAPSIS":"546.518","REV_AT_EPOCH":"12745","DECAY_DATE":null,"LAUNCH_DATE":"2021-03-04","FILE":"3934071","EPOCH":"2023-06-15T19:22:37.887744","MEAN_ELEMENT_THEORY":"SGP4","MEAN_ANOMALY":"254.1238","COUNTRY_CODE":"US","NORAD_CAT_ID":"47726","MEAN_MOTION_DDOT":"0.0000000000000","RCS_SIZE":"MEDIUM","OBJECT_TYPE":"PAYLOAD","BSTAR":"0.00140680000000","SEMIMAJOR_AXIS":"6925.253","EPHEMERIS_TYPE":"0","TLE_LINE2":"2 47726  53.0547   1.2823 0000866 105.9847 254.1238 15.06431336127458","RA_OF_ASC_NODE":"1.2823","MEAN_MOTION":"15.06431336","CENTER_NAME":"EARTH","APOAPSIS":"547.717","SITE":"AFETR","CLASSIFICATION_TYPE":"U","ECCENTRICITY":"0.00008660","OBJECT_NAME":"STARLINK-2126","PERIOD":"95.590","MEAN_MOTION_DOT":"0.00020753","INCLINATION":"53.0547","OBJECT_ID":"2021-017E","GP_ID":"234019548"},{"TIME_SYSTEM":"UTC","TLE_LINE1":"1 47727U 21017F   23166.75853265  .00015655  00000-0  10671-2 0  9996","REF_FRAME":"TEME","ELEMENT_SET_NO":"999","ARG_OF_PERICENTER":"79.9556","PERIAPSIS":"546.636","REV_AT_EPOCH":"12860","LAUNCH_DATE":"2021-03-04","DECAY_DATE":null,"FILE":"3934071","EPOCH":"2023-06-15T18:12:17.220960","MEAN_ANOMALY":"280.1520","MEAN_ELEMENT_THEORY":"SGP4","COUNTRY_CODE":"US","NORAD_CAT_ID":"47727","MEAN_MOTION_DDOT":"0.0000000000000","RCS_SIZE":"LARGE","OBJECT_TYPE":"PAYLOAD","BSTAR":"0.00106710000000","SEMIMAJOR_AXIS":"6925.303","TLE_LINE2":"2 47727  53.0543 281.5043 0000769  79.9556 280.1520 15.06414731128602","EPHEMERIS_TYPE":"0","RA_OF_ASC_NODE":"281.5043","MEAN_MOTION":"15.06414731","APOAPSIS":"547.701","CENTER_NAME":"EARTH","SITE":"AFETR","CLASSIFICATION_TYPE":"U","OBJECT_NAME":"STARLINK-2129","ECCENTRICITY":"0.00007690","PERIOD":"95.591","MEAN_MOTION_DOT":"0.00015655","INCLINATION":"53.0543","OBJECT_ID":"2021-017F","GP_ID":"234019035"}];
